ONEWEB-0427             
1 50499U 21132AG  24122.29953256  .00000071  00000+0  14656-3 0  9990
2 50499  87.9117 130.1062 0002133  83.1946 276.9429 13.18686939119223
ONEWEB-0429             
1 50500U 21132AH  24122.43864538 -.00000062  00000+0 -18983-3 0  9992
2 50500  87.9122 130.0816 0002007  91.5646 268.5716 13.18686247119215
ONEWEB-0430             
1 50501U 21132AJ  24122.42756146  .00000063  00000+0  12581-3 0  9994
2 50501  87.9121 130.0902 0002414  98.3868 261.7538 13.18684608119254
ONEWEB-0432             
1 50502U 21132AK  24122.30743894 -.00000187  00000+0 -50602-3 0  9993
2 50502  87.9120 130.1074 0002529  89.7257 270.4165 13.18686387119190
ONEWEB-0440             
1 50503U 21132AL  24122.44654236 -.00000115  00000+0 -32553-3 0  9996
2 50503  87.9122 130.0669 0001438  94.8965 265.2331 13.18685770119207
ONEWEB-0450             
1 50504U 21132AM  24122.44034146  .00000088  00000+0  18922-3 0  9990
2 50504  87.9121 130.0965 0002079 101.3274 258.8092 13.18683643119237
ONEWEB-0410             
1 51622U 22012A   24122.39079682  .00000082  00000+0  17899-3 0  9994
2 51622  87.9188 160.4459 0002420  54.1740 305.9616 13.17649277111401
ONEWEB-0411             
1 51623U 22012B   24122.45722514 -.00000340  00000+0 -10094-2 0  9999
2 51623  87.8988 190.6339 0002792 105.6103 254.5333 13.10374033107563
